METEOSAT-7              
1 24932U 97049B   15051.02881161  .00000038  00000-0  00000+0 0  9998
2 24932   9.4943  45.5155 0001209 231.7491 300.2588  1.00273569 63979
NOAA 15                 
1 25338U 98030A   15051.53805588  .00000167  00000-0  89349-4 0  9996
2 25338  98.7694  50.1261 0011484 143.5690   9.0899 14.25568256872227
METEOSAT-8 (MSG-1)      
1 27509U 02040B   15050.80821807 -.00000001  00000-0  00000+0 0  9995
2 27509   3.3220  61.5062 0001846 187.7005 194.7990  1.00267720 45780
KALPANA-1 (METSAT 1)    
1 27525U 02043A   15049.69075711 -.00000098  00000-0  00000+0 0  9992
2 27525   4.8596  61.4306 0013883 212.6184 196.7870  1.00272003 45576
INSAT-3A                
1 27714U 03013A   15050.74445440 -.00000279  00000-0  00000+0 0  9999
2 27714   0.0416 265.8593 0002738 138.1543 106.8024  1.00270386 43484
HIMAWARI-6 (MTSAT-1R)   
1 28622U 05006A   15051.46136140 -.00000304  00000-0  00000+0 0  9995
2 28622   0.0115 107.8610 0003790 244.6374 103.5750  1.00269659 36559
NOAA 18                 
1 28654U 05018A   15051.53254183  .00000258  00000-0  16569-3 0  9997
2 28654  99.1770  41.3817 0013291 288.4413 178.0017 14.12151103502617
METEOSAT-9 (MSG-2)      
1 28912U 05049B   15051.29059832  .00000039  00000-0  00000+0 0  9991
2 28912   0.6197  48.6584 0000503 223.8879 351.2328  1.00267501 33630
MTSAT-2                 
1 28937U 06004A   15050.48046360  .00000000  00000-0  10000-3 0  9995
2 28937   0.0249  93.4394 0003512 246.3847 127.2328  1.00266610 32948
FORMOSAT-3 FM6          
1 29047U 06011A   15051.14163758  .00000282  00000-0  12775-3 0  9994
2 29047  71.9800 117.2197 0050522 176.9192 183.2266 14.28250672463677
FORMOSAT-3 FM1          
1 29048U 06011B   15051.18692485  .00000369  00000-0  16304-3 0  9991
2 29048  71.9702  30.1961 0042515 129.9931   8.1195 14.28219328466169
FORMOSAT-3 FM5          
1 29049U 06011C   15050.83225064  .00000408  00000-0  17881-3 0  9993
2 29049  72.0211 191.5770 0034798 176.0367 296.1493 14.28227204461883
FORMOSAT-3 FM3          
1 29050U 06011D   15050.75353199  .00001032  00000-0  23310-3 0  9995
2 29050  72.0175 174.9643 0052794 257.8754 101.6480 14.57560148472890
FORMOSAT-3 FM4          
1 29051U 06011E   15051.12092494  .00000236  00000-0  10826-3 0  9999
2 29051  72.0059  96.5208 0067277  44.7486 315.9050 14.28228258464519
FORMOSAT-3 FM2          
1 29052U 06011F   15051.54750088  .00000334  00000-0  14887-3 0  9996
2 29052  72.0358 164.1366 0039033 138.4458 305.4412 14.28332216462882
GOES 13                 
1 29155U 06018A   15051.17009383 -.00000270  00000-0  00000+0 0  9999
2 29155   0.3877 266.1657 0004133 134.0539  95.2168  1.00275291 32056
METOP-A                 
1 29499U 06044A   15051.19004282  .00000085  00000-0  58964-4 0  9994
2 29499  98.6902 112.4448 0001956 126.2961 319.5891 14.21486602432662
FENGYUN 2D              
1 29640U 06053A   15051.08917650 -.00000222  00000-0  10000-3 0  9994
2 29640   2.8540  68.8844 0001110  92.1062 107.3526  1.00274493 30099
FENGYUN 3A              
1 32958U 08026A   15051.80956474  .00000084  00000-0  59815-4 0  9992
2 32958  98.5199 106.8180 0009267 213.8593 146.1993 14.19527853349115
FENGYUN 2E              
1 33463U 08066A   15051.50889697 -.00000352  00000-0  10000-3 0  9998
2 33463   2.3881  58.1819 0000199 146.8114 232.6294  1.00265202 22649
NOAA 19                 
1 33591U 09005A   15051.53420082  .00000253  00000-0  16294-3 0  9996
2 33591  98.9773   1.2210 0014852 136.4670 284.3478 14.11876805311034
GOES 14                 
1 35491U 09033A   15051.31428900 -.00000116  00000-0  00000+0 0  9994
2 35491   0.0235 165.2985 0001106  65.9982 287.3994  1.00271314 20707
METEOR-M 1              
1 35865U 09049A   15051.68773040  .00000128  00000-0  77078-4 0  9990
2 35865  98.5165  96.1190 0003123  91.5047 268.6488 14.21992689281659
GOES 15                 
1 36411U 10008A   15051.51178797  .00000067  00000-0  00000+0 0  9993
2 36411   0.0718 249.9351 0002645 102.9680 206.0482  1.00270035 18222
COMS 1                  
1 36744U 10032A   15051.68665299 -.00000368  00000-0  10000-3 0  9995
2 36744   0.0294  68.0881 0000973 300.8318 156.7373  1.00269458 17199
FENGYUN 3B              
1 37214U 10059A   15051.82720946  .00000148  00000-0  91749-4 0  9999
2 37214  98.8802   5.4666 0001547  98.6069 261.5282 14.19559175222612
ELEKTRO-L 1 (GOMS 2)    
1 37344U 11001A   15051.76859744 -.00000119  00000-0  00000+0 0  9997
2 37344   0.7380  81.1012 0001528 162.5201 259.2518  1.00271891 15015
SUOMI NPP               
1 37849U 11061A   15051.25098561  .00000119  00000-0  76793-4 0  9995
2 37849  98.6883 352.7063 0001668  89.6665  75.1365 14.19560807171784
FENGYUN 2F              
1 38049U 12002A   15051.65768340 -.00000379  00000-0  10000-3 0  9994
2 38049   0.1660 353.1035 0002366 132.3372  13.5749  1.00265664 11435
METEOSAT-10 (MSG-3)     
1 38552U 12035B   15051.10881447 -.00000022  00000-0  00000+0 0  9993
2 38552   0.5970 139.5572 0000841 232.1085 177.4705  1.00280092  9756
METOP-B                 
1 38771U 12049A   15051.21744294  .00000099  00000-0  65159-4 0  9995
2 38771  98.7117 112.7717 0001848 142.3669 253.9009 14.21471214125800
FENGYUN 3C              
1 39260U 13052A   15051.78799254  .00000087  00000-0  62116-4 0  9999
2 39260  98.7426 125.5074 0000363 105.3030 254.8180 14.19533597 73157
METEOR-M 2              
1 40069U 14037A   15051.80498716  .00000019  00000-0  29427-4 0  9997
2 40069  98.7741 107.4250 0006280 132.0258 228.1449 14.20597374 32246
HIMAWARI 8              
1 40267U 14060A   15050.75557988 -.00000299  00000-0  00000+0 0  9995
2 40267   0.0344 296.5423 0001136  62.6186 202.8525  1.00268281  1398
FENGYUN 2G              
1 40367U 14090A   15051.19988370 -.00000326  00000-0  00000+0 0  9992
2 40367   2.1826 278.1258 0004579 240.1908 162.8297  1.00281151   580
